[
  {
    "name": "ONEWEB-0239",
    "noradId": "48802",
    "line1": "1 48802U 21045AM  26160.51306171  .00000068  00000+0  14740-3 0  9995",
    "line2": "2 48802  87.8999 260.7307 0001384 122.2038 237.9227 13.15548307243337"
  },
  {
    "name": "ONEWEB-0249",
    "noradId": "48967",
    "line1": "1 48967U 21060A   26160.45320011 -.00000001  00000+0 -35090-4 0  9997",
    "line2": "2 48967  87.9100 230.3139 0002066 101.9410 258.1952 13.16595425238592"
  },
  {
    "name": "ONEWEB-0250",
    "noradId": "48968",
    "line1": "1 48968U 21060B   26160.23248384 -.00000009  00000+0 -51138-4 0  9995",
    "line2": "2 48968  87.9102 228.1398 0002560 120.9071 239.2317 13.25833213239169"
  },
  {
    "name": "ONEWEB-0252",
    "noradId": "48970",
    "line1": "1 48970U 21060D   26160.48406986  .00000111  00000+0  25652-3 0  9992",
    "line2": "2 48970  87.9102 230.2997 0001968  92.1813 267.9543 13.16593935238641"
  },
  {
    "name": "ONEWEB-0253",
    "noradId": "48971",
    "line1": "1 48971U 21060E   26160.47298657  .00000049  00000+0  94622-4 0  9990",
    "line2": "2 48971  87.9099 230.3076 0002021 102.6958 257.4399 13.16593152238570"
  },
  {
    "name": "ONEWEB-0254",
    "noradId": "48972",
    "line1": "1 48972U 21060F   26160.48249131  .00000103  00000+0  23503-3 0  9995",
    "line2": "2 48972  87.9099 230.3029 0001827 106.7153 253.4179 13.16594485238576"
  },
  {
    "name": "ONEWEB-0255",
    "noradId": "48973",
    "line1": "1 48973U 21060G   26160.44449381 -.00000049  00000+0 -16279-3 0  9994",
    "line2": "2 48973  87.9100 230.3171 0001911 101.6175 258.5171 13.16594055238649"
  },
  {
    "name": "ONEWEB-0256",
    "noradId": "48974",
    "line1": "1 48974U 21060H   26160.47060401 -.00000016  00000+0 -75676-4 0  9991",
    "line2": "2 48974  87.9094 230.3167 0002115  96.4672 263.6700 13.16592959238610"
  },
  {
    "name": "ONEWEB-0257",
    "noradId": "48975",
    "line1": "1 48975U 21060J   26160.42707176  .00000061  00000+0  12543-3 0  9995",
    "line2": "2 48975  87.9101 230.3119 0001911  97.3805 262.7543 13.16594540238565"
  },
  {
    "name": "ONEWEB-0258",
    "noradId": "48976",
    "line1": "1 48976U 21060K   26160.42865717  .00000081  00000+0  17821-3 0  9998",
    "line2": "2 48976  87.9102 230.3234 0002053 100.6503 259.4860 13.16594283238576"
  },
  {
    "name": "ONEWEB-0259",
    "noradId": "48977",
    "line1": "1 48977U 21060L   26160.42232818  .00000060  00000+0  12349-3 0  9996",
    "line2": "2 48977  87.9101 230.3240 0001969 104.1253 256.0097 13.16594824238609"
  },
  {
    "name": "ONEWEB-0260",
    "noradId": "48978",
    "line1": "1 48978U 21060M   26160.48960807  .00000085  00000+0  18744-3 0  9991",
    "line2": "2 48978  87.9095 230.3127 0002090  87.7050 272.4321 13.16593737238595"
  },
  {
    "name": "ONEWEB-0261",
    "noradId": "48979",
    "line1": "1 48979U 21060N   26160.45951803  .00000027  00000+0  37011-4 0  9990",
    "line2": "2 48979  87.9097 230.3187 0001737  97.0093 263.1236 13.16595909238643"
  },
  {
    "name": "ONEWEB-0262",
    "noradId": "48980",
    "line1": "1 48980U 21060P   26160.43974149  .00000039  00000+0  68087-4 0  9998",
    "line2": "2 48980  87.9100 230.3080 0001984 107.2897 252.8452 13.16594708238609"
  },
  {
    "name": "ONEWEB-0263",
    "noradId": "48981",
    "line1": "1 48981U 21060Q   26160.47140628  .00000010  00000+0 -73643-5 0  9995",
    "line2": "2 48981  87.9100 230.3136 0001692 101.3717 258.7604 13.16594338238573"
  },
  {
    "name": "ONEWEB-0264",
    "noradId": "48982",
    "line1": "1 48982U 21060R   26160.43262185  .00000078  00000+0  17079-3 0  9997",
    "line2": "2 48982  87.9102 230.3242 0001889  93.8761 266.2586 13.16594731238576"
  },
  {
    "name": "ONEWEB-0266",
    "noradId": "48984",
    "line1": "1 48984U 21060T   26160.45398905 -.00000034  00000+0 -12169-3 0  9990",
    "line2": "2 48984  87.9101 230.3107 0002138  99.8865 260.2507 13.16594022238565"
  },
  {
    "name": "ONEWEB-0267",
    "noradId": "48985",
    "line1": "1 48985U 21060U   26160.46507462  .00000031  00000+0  46299-4 0  9999",
    "line2": "2 48985  87.9101 230.3049 0001838  97.0384 263.0956 13.16594502238576"
  },
  {
    "name": "ONEWEB-0268",
    "noradId": "48986",
    "line1": "1 48986U 21060V   26160.43340127  .00000016  00000+0  92901-5 0  9995",
    "line2": "2 48986  87.9103 230.3207 0002069  95.4367 264.6999 13.16595939238833"
  },
  {
    "name": "ONEWEB-0269",
    "noradId": "48987",
    "line1": "1 48987U 21060W   26160.49040663  .00000041  00000+0  73325-4 0  9990",
    "line2": "2 48987  87.9090 230.3127 0002200  95.5905 264.5477 13.16594116238618"
  },
  {
    "name": "ONEWEB-0270",
    "noradId": "48988",
    "line1": "1 48988U 21060X   26160.43182669  .00000018  00000+0  14500-4 0  9992",
    "line2": "2 48988  87.9102 230.3225 0001736 105.7378 254.3944 13.16594595238643"
  },
  {
    "name": "ONEWEB-0271",
    "noradId": "48989",
    "line1": "1 48989U 21060Y   26160.49515713  .00000093  00000+0  20953-3 0  9990",
    "line2": "2 48989  87.9100 230.3004 0001774  99.4053 260.7278 13.16594349238657"
  },
  {
    "name": "ONEWEB-0272",
    "noradId": "48990",
    "line1": "1 48990U 21060Z   26160.44130728 -.00000217  00000+0 -60066-3 0  9995",
    "line2": "2 48990  87.9101 230.3229 0001915  90.2090 269.9260 13.16594524238596"
  },
  {
    "name": "ONEWEB-0273",
    "noradId": "48991",
    "line1": "1 48991U 21060AA  26160.46349123  .00000040  00000+0  69755-4 0  9996",
    "line2": "2 48991  87.9102 230.3176 0001928 100.7109 259.4239 13.16594579238579"
  },
  {
    "name": "ONEWEB-0274",
    "noradId": "48992",
    "line1": "1 48992U 21060AB  26160.48881474  .00000032  00000+0  48960-4 0  9995",
    "line2": "2 48992  87.9091 230.3157 0002011  89.2538 270.8823 13.16593368238613"
  },
  {
    "name": "ONEWEB-0275",
    "noradId": "48993",
    "line1": "1 48993U 21060AC  26160.47774343  .00000096  00000+0  21758-3 0  9996",
    "line2": "2 48993  87.9102 230.3062 0001977  96.4781 263.6575 13.16593723238543"
  },
  {
    "name": "ONEWEB-0276",
    "noradId": "48994",
    "line1": "1 48994U 21060AD  26160.43498851  .00000041  00000+0  72537-4 0  9992",
    "line2": "2 48994  87.9101 230.3141 0002022  93.9676 266.1686 13.16594769238551"
  },
  {
    "name": "ONEWEB-0277",
    "noradId": "48995",
    "line1": "1 48995U 21060AE  26160.21966975 -.00000040  00000+0 -13705-3 0  9998",
    "line2": "2 48995  87.9094 230.3665 0001896 100.4132 259.7213 13.16593467238517"
  },
  {
    "name": "ONEWEB-0278",
    "noradId": "48996",
    "line1": "1 48996U 21060AF  26160.21015101 -.00000064  00000+0 -20009-3 0  9996",
    "line2": "2 48996  87.9104 230.3577 0002265 102.0572 258.0813 13.16596960238642"
  },
  {
    "name": "ONEWEB-0279",
    "noradId": "48997",
    "line1": "1 48997U 21060AG  26160.44607576 -.00000027  00000+0 -10423-3 0  9993",
    "line2": "2 48997  87.9101 230.3092 0001836  95.8035 264.3305 13.16594172238603"
  },
  {
    "name": "ONEWEB-0280",
    "noradId": "48998",
    "line1": "1 48998U 21060AH  26160.46110499 -.00000051  00000+0 -16661-3 0  9996",
    "line2": "2 48998  87.9098 230.3106 0002021 108.6805 251.4546 13.16592940238548"
  },
  {
    "name": "ONEWEB-0281",
    "noradId": "48999",
    "line1": "1 48999U 21060AJ  26160.46665981  .00000023  00000+0  26992-4 0  9994",
    "line2": "2 48999  87.9099 230.3046 0002108  99.6990 260.4379 13.16594523238614"
  },
  {
    "name": "ONEWEB-0282",
    "noradId": "49000",
    "line1": "1 49000U 21060AK  26160.42072455  .00000016  00000+0  78445-5 0  9995",
    "line2": "2 49000  87.9099 230.3221 0001900 101.7418 258.3926 13.16596838238583"
  },
  {
    "name": "ONEWEB-0283",
    "noradId": "49001",
    "line1": "1 49001U 21060AL  26160.18166409  .00000181  00000+0  44060-3 0  9999",
    "line2": "2 49001  87.9099 230.3691 0001886  97.3485 262.7861 13.16594188238563"
  },
  {
    "name": "ONEWEB-0284",
    "noradId": "49002",
    "line1": "1 49002U 21060AM  26160.47932531  .00000106  00000+0  24314-3 0  9996",
    "line2": "2 49002  87.9099 230.3032 0002155 108.0785 252.0580 13.16594310238585"
  },
  {
    "name": "ONEWEB-0285",
    "noradId": "49075",
    "line1": "1 49075U 21075A   26160.51279202  .00000367  00000+0  98601-3 0  9995",
    "line2": "2 49075  87.8948 352.1885 0001748  90.1915 269.9414 13.12443852234207"
  },
  {
    "name": "ONEWEB-0286",
    "noradId": "49076",
    "line1": "1 49076U 21075B   26160.49485775 -.00000225  00000+0 -65994-3 0  9991",
    "line2": "2 49076  87.8937 352.2096 0002020  86.8725 273.2634 13.12443645233555"
  },
  {
    "name": "ONEWEB-0287",
    "noradId": "49077",
    "line1": "1 49077U 21075C   26160.49709813  .00000034  00000+0  54739-4 0  9996",
    "line2": "2 49077  87.9138   7.3958 0002271  88.0516 272.0875 13.17649041232618"
  },
  {
    "name": "ONEWEB-0288",
    "noradId": "49078",
    "line1": "1 49078U 21075D   26160.54751441 -.00000189  00000+0 -56024-3 0  9998",
    "line2": "2 49078  87.8948 352.1748 0001991  92.7114 267.4243 13.12442454234184"
  },
  {
    "name": "ONEWEB-0289",
    "noradId": "49079",
    "line1": "1 49079U 21075E   26160.53577467  .00000010  00000+0 -66996-5 0  9995",
    "line2": "2 49079  87.9142   7.4049 0001718  99.4122 260.7204 13.17648829233198"
  },
  {
    "name": "ONEWEB-0290",
    "noradId": "49080",
    "line1": "1 49080U 21075F   26160.50891473  .00000059  00000+0  11871-3 0  9992",
    "line2": "2 49080  87.9150   7.3814 0001595 101.9258 258.2052 13.17648045232608"
  },
  {
    "name": "ONEWEB-0291",
    "noradId": "49081",
    "line1": "1 49081U 21075G   26160.49372696  .00000024  00000+0  28644-4 0  9991",
    "line2": "2 49081  87.9141   7.3927 0002113  95.2006 264.9367 13.17648143232597"
  },
  {
    "name": "ONEWEB-0293",
    "noradId": "49082",
    "line1": "1 49082U 21075H   26160.51902803  .00000035  00000+0  56219-4 0  9995",
    "line2": "2 49082  87.9138   7.3908 0001828  91.8488 268.2853 13.17648065232625"
  }
]